[{"OBJECT_NAME":"GOES 19","OBJECT_ID":"2024-119A","EPOCH":"2026-03-04T08:09:38.820096","MEAN_MOTION":1.0027197,"ECCENTRICITY":9.96e-5,"INCLINATION":0.0165,"RA_OF_ASC_NODE":326.7117,"ARG_OF_PERICENTER":53.9137,"MEAN_ANOMALY":188.6733,"EPHEMERIS_TYPE":0,"CLASSIFICATION_TYPE":"U","NORAD_CAT_ID":60133,"ELEMENT_SET_NO":999,"REV_AT_EPOCH":591,"BSTAR":0,"MEAN_MOTION_DOT":-2.6e-6,"MEAN_MOTION_DDOT":0},{"OBJECT_NAME":"FENGYUN 3H","OBJECT_ID":"2025-219A","EPOCH":"2026-03-04T19:43:49.438272","MEAN_MOTION":14.19931078,"ECCENTRICITY":0.0001392,"INCLINATION":98.668,"RA_OF_ASC_NODE":6.6712,"ARG_OF_PERICENTER":64.7853,"MEAN_ANOMALY":295.3468,"EPHEMERIS_TYPE":0,"CLASSIFICATION_TYPE":"U","NORAD_CAT_ID":65815,"ELEMENT_SET_NO":999,"REV_AT_EPOCH":2257,"BSTAR":7.6913e-5,"MEAN_MOTION_DOT":1.2e-6,"MEAN_MOTION_DDOT":0}]
